[{"OBJECT_NAME":"OBJECT J","OBJECT_ID":"2023-085J","EPOCH":"2026-03-09T22:47:59.920512","MEAN_MOTION":15.31507187,"ECCENTRICITY":0.00067028,"INCLINATION":97.4828,"RA_OF_ASC_NODE":180.1819,"ARG_OF_PERICENTER":41.7877,"MEAN_ANOMALY":318.3875,"EPHEMERIS_TYPE":0,"CLASSIFICATION_TYPE":"U","NORAD_CAT_ID":57012,"ELEMENT_SET_NO":999,"REV_AT_EPOCH":15156,"BSTAR":0.00064525349,"MEAN_MOTION_DOT":0.00019595,"MEAN_MOTION_DDOT":0},{"OBJECT_NAME":"STARLINK-34741","OBJECT_ID":"2025-167V","EPOCH":"2026-03-09T01:29:36.472416","MEAN_MOTION":15.30205441,"ECCENTRICITY":9.137e-5,"INCLINATION":53.1598,"RA_OF_ASC_NODE":29.5813,"ARG_OF_PERICENTER":122.707,"MEAN_ANOMALY":237.4019,"EPHEMERIS_TYPE":0,"CLASSIFICATION_TYPE":"U","NORAD_CAT_ID":65097,"ELEMENT_SET_NO":999,"REV_AT_EPOCH":3338,"BSTAR":0.00081964852,"MEAN_MOTION_DOT":0.00023999,"MEAN_MOTION_DDOT":0}]
